[{"OBJECT_NAME":"ONEWEB-0379","OBJECT_ID":"2021-090AC","EPOCH":"2026-03-09T16:53:57.719328","MEAN_MOTION":13.14503543,"ECCENTRICITY":0.00014927,"INCLINATION":87.8989,"RA_OF_ASC_NODE":309.5576,"ARG_OF_PERICENTER":81.3964,"MEAN_ANOMALY":278.7335,"EPHEMERIS_TYPE":0,"CLASSIFICATION_TYPE":"U","NORAD_CAT_ID":49305,"ELEMENT_SET_NO":999,"REV_AT_EPOCH":21449,"BSTAR":-0.00041273074,"MEAN_MOTION_DOT":-1.4e-6,"MEAN_MOTION_DDOT":0},{"OBJECT_NAME":"UNKNOWN","OBJECT_ID":"","EPOCH":"2026-03-05T18:48:55.282752","MEAN_MOTION":13.16435767,"ECCENTRICITY":0.0016249,"INCLINATION":82.4776,"RA_OF_ASC_NODE":189.4112,"ARG_OF_PERICENTER":239.19,"MEAN_ANOMALY":274.5257,"EPHEMERIS_TYPE":0,"CLASSIFICATION_TYPE":"U","NORAD_CAT_ID":82627,"ELEMENT_SET_NO":999,"REV_AT_EPOCH":58975,"BSTAR":0.0017379,"MEAN_MOTION_DOT":6.75e-6,"MEAN_MOTION_DDOT":0}]
